STARLINK-2494_new
1 18487C 21040BM  21326.17501941  .00004238  00000-0  28386-3 0  3261
2 18487  53.0565  42.9603 0001169  81.7115 172.7324 15.06403155    18
STARLINK-2494_old
1 28487C 21040BM  21325.14444304  .00005036  00000-0  33743-3 0  3255
2 28487  53.0570  47.5863 0001218  82.3622 340.1446 15.06391143    17
